NORAD_CAT_ID,OBJECT_NAME,OBJECT_TYPE,EPOCH,MEAN_MOTION,ECCENTRICITY,INCLINATION,RA_OF_ASC_NODE,ARG_OF_PERICENTER,MEAN_ANOMALY,BSTAR,MEAN_MOTION_DOT,MEAN_MOTION_DDOT,TLE_LINE0,TLE_LINE1,TLE_LINE2,SEMIMAJOR_AXIS,PERIOD,APOGEE,PERIGEE,DECAYED
51137.0,STARLINK-3180,PAYLOAD,2022-05-13 22:00:00,15.08846139,0.0001962,53.2171,84.9753,51.3049,8.3878,-0.0021941999999999,-0.00035046,0.0,0 STARLINK-3180,1 51137U 22005AK  22133.91667824 -.00035046  00000-0 -21942-2 0  9990,2 51137  53.2171  84.9753 0001962  51.3049   8.3878 15.08846139  1307,6917.861999999999,95.437,541.0840000000002,538.369,0.0
51137.0,STARLINK-3180,PAYLOAD,2022-05-14 14:00:01,15.08834356,0.0001976,53.2171,81.9828,48.882,33.9695,2.3495e-05,8.6e-07,0.0,0 STARLINK-3180,1 51137U 22005AK  22134.58334491  .00000086  00000-0  23495-4 0  9996,2 51137  53.2171  81.9828 0001976  48.8820  33.9695 15.08834356 19241,6917.898,95.438,541.13,538.396,0.0
51137.0,STARLINK-3180,PAYLOAD,2022-05-14 22:00:00,15.08876744,0.0001932,53.2173,80.4886,50.8954,43.537,-0.0075703,-0.0011890999999999,0.0,0 STARLINK-3180,1 51137U 22005AK  22134.91667824 -.00118910  00000-0 -75703-2 0  9997,2 51137  53.2173  80.4886 0001932  50.8954  43.5370 15.08876744  1306,6917.768,95.435,540.97,538.297,0.0
51137.0,STARLINK-3180,PAYLOAD,2022-05-15 14:00:01,15.08843262,0.0001874,53.2175,77.4939,46.7219,70.9465,-0.0024537,-0.00039131,0.0,0 STARLINK-3180,1 51137U 22005AK  22135.58335648 -.00039131  00000-0 -24537-2 0  9993,2 51137  53.2175  77.4939 0001874  46.7219  70.9465 15.08843262 19392,6917.87,95.437,541.0319999999998,538.439,0.0
51137.0,STARLINK-3180,PAYLOAD,2022-05-15 22:00:00,15.08841209,0.0001859,53.2177,75.9976,49.0409,80.1704,-0.00010386,-1.941e-05,0.0,0 STARLINK-3180,1 51137U 22005AK  22135.91667824 -.00001941  00000-0 -10386-3 0  9990,2 51137  53.2177  75.9976 0001859  49.0409  80.1704 15.08841209 19442,6917.877,95.437,541.028,538.456,0.0
51137.0,STARLINK-3180,PAYLOAD,2022-05-16 14:00:01,15.08821582,0.0001834,53.2181,73.0051,44.6859,107.7108,0.00038521,5.845e-05,0.0,0 STARLINK-3180,1 51137U 22005AK  22136.58334491  .00005845  00000-0  38521-3 0  9991,2 51137  53.2181  73.0051 0001834  44.6859 107.7108 15.08821582  1305,6917.937,95.439,541.07,538.533,0.0
51137.0,STARLINK-3180,PAYLOAD,2022-05-16 22:00:00,15.08840838,0.0001919,53.2184,71.509,48.9259,115.0483,-0.0020472,-0.00032723,0.0,0 STARLINK-3180,1 51137U 22005AK  22136.91667824 -.00032723  00000-0 -20472-2 0  9999,2 51137  53.2184  71.5090 0001919  48.9259 115.0483 15.08840838  1302,6917.878000000002,95.438,541.07,538.415,0.0
51137.0,STARLINK-3180,PAYLOAD,2022-05-17 06:00:00,15.08799362,0.0002104,53.2185,70.0143,44.542,131.0232,0.0042908,0.00068589,0.0,0 STARLINK-3180,1 51137U 22005AK  22137.25001157  .00068589  00000-0  42908-2 0  9993,2 51137  53.2185  70.0143 0002104  44.5420 131.0232 15.08799362 19646,6918.005,95.44,541.325,538.414,0.0
51137.0,STARLINK-3180,PAYLOAD,2022-05-17 14:00:01,15.08837734,0.0001926,53.2187,68.5163,48.0472,139.1582,0.0006822999999999,0.00010587,0.0,0 STARLINK-3180,1 51137U 22005AK  22137.58335648  .00010587  00000-0  68230-3 0  9996,2 51137  53.2187  68.5163 0001926  48.0472 139.1582 15.08837734  1306,6917.887,95.438,541.085,538.42,0.0
51137.0,STARLINK-3180,PAYLOAD,2022-05-17 20:00:01,15.08856178,0.0001896,53.219,67.39399999999999,50.7844,55.0561,-0.00064195,-0.00010495,0.0,0 STARLINK-3180,1 51137U 22005AK  22137.83334491 -.00010495  00000-0 -64195-3 0  9995,2 51137  53.2190  67.3940 0001896  50.7844  55.0561 15.08856178 19731,6917.831,95.437,541.008,538.384,0.0
51137.0,STARLINK-3180,PAYLOAD,2022-05-17 22:00:01,15.0885563,0.0001909,53.219,67.0205,49.1128,149.6939,-0.00093711,-0.00015178,0.0,0 STARLINK-3180,1 51137U 22005AK  22137.91668981 -.00015178  00000-0 -93711-3 0  9997,2 51137  53.2190  67.0205 0001909  49.1128 149.6939 15.08855630  1309,6917.833000000001,95.437,541.018,538.377,0.0
51137.0,STARLINK-3180,PAYLOAD,2022-05-18 14:00:01,15.08842657,0.0001808,53.219,64.0276,46.7312,175.2318,0.00054466,8.391e-05,0.0,0 STARLINK-3180,1 51137U 22005AK  22138.58334491  .00008391  00000-0  54466-3 0  9998,2 51137  53.2190  64.0276 0001808  46.7312 175.2318 15.08842657  1301,6917.871999999999,95.437,540.988,538.487,0.0
51137.0,STARLINK-3180,PAYLOAD,2022-05-18 22:00:00,15.08862919,0.0001858,53.2192,62.5319,49.1807,184.3838,-0.0036737,-0.00058319,0.0,0 STARLINK-3180,1 51137U 22005AK  22138.91667824 -.00058319  00000-0 -36737-2 0  9991,2 51137  53.2192  62.5319 0001858  49.1807 184.3838 15.08862919  1306,6917.81,95.436,540.961,538.39,0.0
51137.0,STARLINK-3180,PAYLOAD,2022-05-19 06:00:00,15.08799449,0.0001792,53.2189,61.0369,36.9856,208.1773,0.0039973,0.00063835,0.0,0 STARLINK-3180,1 51137U 22005AK  22139.25001157  .00063835  00000-0  39973-2 0  9992,2 51137  53.2189  61.0369 0001792  36.9856 208.1773 15.08799449 19945,6918.004,95.44,541.109,538.63,0.0
51137.0,STARLINK-3180,PAYLOAD,2022-05-19 14:00:01,15.08823238,0.0001526,53.219,59.5387,39.4956,217.3067,0.00031556,4.735e-05,0.0,0 STARLINK-3180,1 51137U 22005AK  22139.58335648  .00004735  00000-0  31556-3 0  9997,2 51137  53.2190  59.5387 0001526  39.4956 217.3067 15.08823238  1306,6917.932,95.439,540.852,538.741,0.0
51137.0,STARLINK-3180,PAYLOAD,2022-05-19 22:00:00,15.08842646,0.0001535,53.219,58.0432,39.7962,228.5198,-0.00016126,-2.854e-05,0.0,0 STARLINK-3180,1 51137U 22005AK  22139.91667824 -.00002854  00000-0 -16126-3 0  9996,2 51137  53.2190  58.0432 0001535  39.7962 228.5198 15.08842646 20046,6917.871999999999,95.437,540.799,538.675,0.0
51137.0,STARLINK-3180,PAYLOAD,2022-05-20 14:00:01,15.08827588,0.0001578,53.2185,55.0498,44.9985,246.5324,0.0012259,0.00019269,0.0,0 STARLINK-3180,1 51137U 22005AK  22140.58334491  .00019269  00000-0  12259-2 0  9990,2 51137  53.2185  55.0498 0001578  44.9985 246.5324 15.08827588  1306,6917.918000000002,95.438,540.875,538.692,0.0
51137.0,STARLINK-3180,PAYLOAD,2022-05-20 22:00:00,15.08840658,0.0001694,53.2186,53.5544,47.4035,255.7166,-0.00051025,-8.4e-05,0.0,0 STARLINK-3180,1 51137U 22005AK  22140.91667824 -.00008400  00000-0 -51025-3 0  9998,2 51137  53.2186  53.5544 0001694  47.4035 255.7166 15.08840658  1304,6917.878000000002,95.438,540.915,538.571,0.0
51137.0,STARLINK-3180,PAYLOAD,2022-05-21 06:00:00,15.08841631,0.0001779,53.218,52.0589,42.2029,272.5089,-8.4247e-06,-4.22e-06,0.0,0 STARLINK-3180,1 51137U 22005AK  22141.25001157 -.00000422  00000-0 -84247-5 0  9997,2 51137  53.2180  52.0589 0001779  42.2029 272.5089 15.08841631 20248,6917.875,95.437,540.971,538.51,0.0
51137.0,STARLINK-3180,PAYLOAD,2022-05-21 14:00:01,15.08819537,0.0001601,53.2179,50.5607,49.0141,277.3716,0.0013487,0.0002123,0.0,0 STARLINK-3180,1 51137U 22005AK  22141.58335648  .00021230  00000-0  13487-2 0  9991,2 51137  53.2179  50.5607 0001601  49.0141 277.3716 15.08819537  1300,6917.943,95.439,540.915,538.7,0.0
51137.0,STARLINK-3180,PAYLOAD,2022-05-21 22:00:00,15.08847862,0.0001719,53.2181,49.0654,49.4125,288.4952,-4.8797e-05,-1.065e-05,0.0,0 STARLINK-3180,1 51137U 22005AK  22141.91667824 -.00001065  00000-0 -48797-4 0  9992,2 51137  53.2181  49.0654 0001719  49.4125 288.4952 15.08847862  1301,6917.856,95.437,540.911,538.5319999999998,0.0
51137.0,STARLINK-3180,PAYLOAD,2022-05-22 14:00:01,15.088367800000002,0.0001807,53.2173,46.0753,49.4486,311.5586,6.066e-05,6.77e-06,0.0,0 STARLINK-3180,1 51137U 22005AK  22142.58334491  .00000677  00000-0  60660-4 0  9996,2 51137  53.2173  46.0753 0001807  49.4486 311.5586 15.08836780 20441,6917.89,95.438,541.005,538.505,0.0
51137.0,STARLINK-3180,PAYLOAD,2022-05-22 22:00:01,15.08852088,0.0001571999999999,53.2179,44.5763,42.534,330.207,-0.0030392,-0.00048348,0.0,0 STARLINK-3180,1 51137U 22005AK  22142.91668981 -.00048348  00000-0 -30392-2 0  9993,2 51137  53.2179  44.5763 0001572  42.5340 330.2070 15.08852088 20493,6917.843000000003,95.437,540.7959999999998,538.621,0.0
51137.0,STARLINK-3180,PAYLOAD,2022-05-23 14:00:01,15.08783109,0.0001569,53.2179,41.5824,44.8386,350.9976,0.0032084,0.00051064,0.0,0 STARLINK-3180,1 51137U 22005AK  22143.58334491  .00051064  00000-0  32084-2 0  9990,2 51137  53.2179  41.5824 0001569  44.8386 350.9976 15.08783109 20591,6918.054,95.441,541.005,538.8340000000002,0.0
51137.0,STARLINK-3180,PAYLOAD,2022-05-23 22:00:01,15.08827712,0.0001745,53.2181,40.0874,44.38399999999999,3.0613,-0.00048463,-7.99e-05,0.0,0 STARLINK-3180,1 51137U 22005AK  22143.91668981 -.00007990  00000-0 -48463-3 0  9991,2 51137  53.2181  40.0874 0001745  44.3840   3.0613 15.08827712  1300,6917.918000000002,95.438,540.99,538.576,0.0
51137.0,STARLINK-3180,PAYLOAD,2022-05-24 06:00:02,15.08828469,0.0001827,53.2181,38.5914,40.2277,18.7882,0.0015964,0.00025202,0.0,0 STARLINK-3180,1 51137U 22005AK  22144.25002315  .00025202  00000-0  15964-2 0  9995,2 51137  53.2181  38.5914 0001827  40.2277  18.7882 15.08828469 20691,6917.916,95.438,541.045,538.5169999999998,0.0
51137.0,STARLINK-3180,PAYLOAD,2022-05-24 14:00:01,15.08829704,0.00017,53.2184,37.0934,47.2409,23.3056,0.0017012,0.00026883,0.0,0 STARLINK-3180,1 51137U 22005AK  22144.58334491  .00026883  00000-0  17012-2 0  9996,2 51137  53.2184  37.0934 0001700  47.2409  23.3056 15.08829704  1309,6917.9119999999975,95.438,540.953,538.601,0.0
51137.0,STARLINK-3180,PAYLOAD,2022-05-24 22:00:00,15.08843025,0.0001922,53.2186,35.5985,46.9589,35.185,-0.00060995,-9.983e-05,0.0,0 STARLINK-3180,1 51137U 22005AK  22144.91667824 -.00009983  00000-0 -60995-3 0  9995,2 51137  53.2186  35.5985 0001922  46.9589  35.1850 15.08843025 20802,6917.871,95.437,541.066,538.4069999999998,0.0
51137.0,STARLINK-3180,PAYLOAD,2022-05-25 14:00:01,15.08811749,0.0001706,53.2191,32.6045,47.6374,57.7131,0.0038659,0.00061729,0.0,0 STARLINK-3180,1 51137U 22005AK  22145.58334491  .00061729  00000-0  38659-2 0  9995,2 51137  53.2191  32.6045 0001706  47.6374  57.7131 15.08811749  1307,6917.967,95.439,541.012,538.6519999999998,0.0
